KUIPER-00232            
1 67148U 25301R   25364.72241468  .00049306  00000+0  13506-2 0  9999
2 67148  51.8739  38.2764 0002374  55.3153 304.8057 15.36826077  3138
KUIPER-00241            
1 67149U 25301S   25364.72678048  .00038271  00000+0  10658-2 0  9992
2 67149  51.8737  38.3033 0002850 106.8274 253.3025 15.36425479  3462
KUIPER-00245            
1 67150U 25301T   25364.66751020  .00040396  00000+0  11447-2 0  9997
2 67150  51.8726  38.6578 0005110 131.2051 228.9376 15.35851671  3122
KUIPER-00246            
1 67151U 25301U   25364.72963061  .00045223  00000+0  12684-2 0  9993
2 67151  51.8736  38.3241 0004019 120.9256 239.2126 15.36123813  3159
KUIPER-00247            
1 67152U 25301V   25364.74818023  .00029395  00000+0  87982-3 0  9999
2 67152  51.8644  38.4424 0011046 166.5224 193.6059 15.34242463  3138
KUIPER-00248            
1 67153U 25301W   25364.67672759  .00038581  00000+0  11256-2 0  9993
2 67153  51.8684  38.7183 0008854 153.6562 206.4875 15.34934709  3290
KUIPER-00249            
1 67154U 25301X   25364.74011099  .00041577  00000+0  12069-2 0  9998
2 67154  51.8660  38.3927 0008079 150.2982 209.8463 15.35065839  3138
KUIPER-00250            
1 67155U 25301Y   25364.73539463  .00031983  00000+0  91670-3 0  9994
2 67155  51.8715  38.3636 0006398 140.2230 219.9226 15.35600910  3161
KUIPER-00251            
1 67156U 25301Z   25364.74096656  .00042770  00000+0  12421-2 0  9990
2 67156  51.8672  38.3988 0008943 150.0972 210.0526 15.35031736  3321
KUIPER-00252            
1 67157U 25301AA  25364.61515827  .00040789  00000+0  12097-2 0  9990
2 67157  51.8667  39.0539 0009833 159.7169 200.4209 15.34384335  3112
KUIPER-00261            
1 67158U 25301AB  25364.73433216  .00041846  00000+0  11962-2 0  9990
2 67158  51.8698  38.3566 0006253 135.2397 224.9095 15.35557273  3134
KUIPER-00265            
1 67159U 25301AC  25364.72501470  .00057402  00000+0  15801-2 0  9999
2 67159  51.8733  38.2949 0002576  80.8937 279.2341 15.36606895  3164
GALILEO A               
1 67160U 25302A   25352.14605887 -.00000007  00000+0  00000+0 0  9994
2 67160  54.2406 107.2544 0008423 237.6458 122.2317  1.72906186    28
GALILEO B               
1 67161U 25302B   25363.12989953  .00000002  00000+0  00000+0 0  9998
2 67161  54.2318 106.9013 0006025 264.2033  95.7135  1.72971472   223
ARIANE 6 R/B            
1 67162U 25302C   25353.30035962 -.00000005  00000+0  00000+0 0  9994
2 67162  54.2437 107.2220 0000255 160.7324 199.2296  1.73130298    88
DISKSAT A               
1 67219U 25305A   25354.38090451  .00000510  00000+0  50887-4 0  9996
2 67219  45.0057 310.0654 0003912 276.1097  83.9332 15.05762698   337
DISKSAT B               
1 67220U 25305B   25354.24828476  .00000511  00000+0  51086-4 0  9992
2 67220  45.0108 310.7693 0004681 270.4757  89.5581 15.05702195   312
DISKSAT C               
1 67221U 25305C   25354.31471422  .00001256  00000+0  10191-3 0  9994
2 67221  45.0067 310.4143 0004387 282.7791  77.2594 15.05653670   312
DISKSAT D               
1 67222U 25305D   25354.31483363  .00001252  00000+0  10184-3 0  9990
2 67222  45.0056 310.4150 0004477 287.6101  72.4284 15.05567005   317
ELECTRON KICK STAGE R/B 
1 67223U 25305E   25357.29083347  .00018707  00000+0  18366-3 0  9992
2 67223  44.9877 292.9264 0177490 166.6089 193.9601 15.48545747   794
ELECTRON R/B            
1 67224U 25305F   25352.76890193  .00172783  86369-5  22935-3 0  9995
2 67224  45.0188 318.3021 0262888 280.1207  77.0133 15.64663678    93
TJS-23                  
1 67226U 25306A   25355.35057138  .00003331  00000+0  71636-3 0  9996
2 67226  16.4010 298.8861 7754040 179.8382 143.9016  1.72705756    20
CZ-5 R/B                
1 67227U 25306B   25364.13237197  .00001991  00000+0  71754-3 0  9999
2 67227  16.3619 295.8611 7577901 184.7844 157.8104  1.92266467   207
QPS-SAR-15              
1 67228U 25307A   25364.57162821  .00009079  00000+0  78667-3 0  9995
2 67228  42.0071  72.6877 0009608 323.9215  36.0961 14.97168113  1395
ELECTRON KICK STAGE R/B 
1 67229U 25307B   25364.46998988  .00655920  13036-3  18920-2 0  9999
2 67229  42.0011  68.3731 0223435 302.2432  55.6937 15.62102641  1430
ELECTRON R/B            
1 67230U 25307C   25355.36249005  .00071881  81069-5  20248-3 0  9997
2 67230  41.9820 123.1026 0261408 268.1410  88.9482 15.55087105    19
BLUEBIRD 6              
1 67232U 25309A   25360.75210442  .00001165  00000+0  72651-4 0  9997
2 67232  53.0002  40.8851 0010477 329.2446  30.7932 15.17699903   405
LVM3 R/B                
1 67233U 25309B   25360.74928094  .00001231  00000+0  72627-4 0  9993
2 67233  52.9350  40.7629 0010474 355.6984   4.3917 15.19340101   404
2025-310A               
1 67234U 25310A   25363.31529228  .00002997  00000+0  13914-3 0  9991
2 67234  97.9653   8.0682 0151800  69.0443 292.6954 15.11166232   575
2025-310B               
1 67235U 25310B   25364.49367916  .00129049  22032-5  30187-3 0  9990
2 67235  97.9705   9.5182 0301017  59.2140 303.8374 15.49853307   766
FENGYUN 4C              
1 67246U 25312A   25360.90857406  .00039214  41525-6  21251-2 0  9998
2 67246  28.4641 334.3215 7309751 179.7824 181.1675  2.27841578    17
CZ-3B R/B               
1 67247U 25312B   25364.65951188  .00110348 -92251-6  45943-3 0  9993
2 67247  28.4450 332.8221 7240585 181.4026 174.1838  2.39221082    95
TIANHUI 7               
1 67300U 25314A   25364.54693957  .00004086  00000+0  15763-3 0  9991
2 67300  97.4218  76.7599 0006247 231.9255 128.1421 15.26852571    76
CZ-4B R/B               
1 67301U 25314B   25364.53820645  .00106268  52323-5  57509-3 0  9997
2 67301  97.3764  76.7585 0149504  17.3840 343.2459 15.65683130    29
OBJECT A                
1 67302U 25315A   25364.74686905  .00007537  00000+0  10916-2 0  9999
2 67302  19.5120 100.8160 7296133 179.4013 182.6365  2.27844974    19
